#dP2020 10  5  0  0  0.00000000      96 __u+U ITR00 FIT  IAC
## 2126  86400.00000000   900.00000000 59127 0.0000000000000
+  121   C01C02C03C04C05C06C07C08C09C10C11C12C13C14C16C19C20
+        C21C22C23C24C25C26C27C28C29C30C32C33C34C35C36C37C38
+        C39C40C43C44C45C46E01E02E03E04E05E07E08E09E11E12E13
+        E14E15E18E19E21E24E25E26E27E30E31E33E36G01G02G03G04
+        G05G06G07G08G09G10G11G12G13G15G16G17G18G19G20G21G22
+        G23G24G25G26G27G28G29G30G31G32J01J02J03R01R02R03R04
+        R05R07R08R09R11R12R13R14R15R16R17R18R19R20R21R22R23
+        R24R26  0  0  0  0  0  0  0  0  0  0  0  0  0  0  0
++        13 13 13 13 13  9  9  8  8  8  8  8  8  8  8  7  7
++         8  8  8  8  8  8  7  7  7  7  8  8  8  8  8  8 10
++        10 10  9 10  9  9  5  5  5  5  4  4  5  4  4  4  4
++         4  5  4  5  4  4  4  4  4  5  5  5  4  4  3  3  3
++         3  3  4  4  3  4  4  3  4  4  3  4  3  3  4  4  3
++         4  4  3  3  4  3  3  4  3  3  9  8  9  6  5  5  5
++         5  6  6  6  5  5  6  5  5  6  5  6  6  6  5  6  5
++         5  8  0  0  0  0  0  0  0  0  0  0  0  0  0  0  0
%c M  cc GPS ccc cccc cccc cccc cccc ccccc ccccc ccccc ccccc
%c cc cc ccc ccc cccc cccc cccc cccc ccccc ccccc ccccc ccccc
%f  0.0000000  0.000000000  0.00000000000  0.000000000000000
%f  0.0000000  0.000000000  0.00000000000  0.000000000000000
%i    0    0    0    0      0      0      0      0         0
%i    0    0    0    0      0      0      0      0         0
/* INFORMATION & ANALYSIS CENTER (IAC)            RAPID DATA
/* S/V CLOCKS ARE ALIGNED TO GNSS TIME                      
/* G:C1WC2W R:C1PC2P E:C1XC5X C:C2IC6I J:C1CC2S             
/* PCV:IGS14_2118 OL/AL:FES2004  NONE     YN ORB:CoN CLK:CoN
*  2020 10 05 19 30  0.00000000
PC01 -34335.188212  24502.630476    253.658896    -75.132311
PC02   4333.144319  41917.652153   -798.095997     -6.903631
PC03 -14753.367222  39463.581571   -210.743997    798.758642
PC04 -39595.523655  14476.400530    548.974638    208.571875
PC05  21883.218587  36022.138031  -1116.391023    -50.356092
PC06  -7800.413702  27214.647197 -30687.063823     31.876581
PC07 -22400.153565  24910.832249  25547.931808    -73.137890
PC08 -18589.287556  37887.859714   3800.242099   -581.646921
PC09   4929.327247  35635.901974 -21406.266324    854.190245
PC10  -6706.112942  27093.934487  31734.451347   -170.771273
PC11  -3085.955553 -25392.465840 -11021.706843   -665.444598
PC12  10158.995726 -13251.264882 -22317.206082    541.749337
PC13  -9282.978821  40071.026043  -9870.823983    681.199928
PC14   1547.151329 -15906.075437  22894.726667-106084.663585
PC16  -4194.453521  29443.432613 -29718.367113   -593.242591
PC19   9690.265888  15536.760496 -21046.249589    571.138020
PC20 -11043.032253  13964.808557 -21474.830837   -854.155302
PC21  26106.025734  -3929.176489   9084.512285   -690.658069
PC22  25338.089981   8197.211328  -8392.710676   -770.481843
PC23 -15241.676229  -6306.075467 -22495.751217   -882.877506
PC24  14690.639856 -23554.195747  -2722.291924   -722.265460
PC25  -1363.916469 -21007.466796 -18308.142371   -780.821371
PC26  20613.530666 -13233.898631  13336.919517    855.902155
PC27 -15684.652316   3411.184603  22812.450170    410.667590
PC28 -17762.448073 -16097.697214  14278.422651   -161.861624
PC29  10426.955535  25758.226983   2583.229962    293.314185
PC30  -3972.215070  20772.868686  18196.744227    385.510410
PC32 -26071.841648   4105.535798  -9045.507169   -904.768331
PC33  -9632.167858 -15537.518919  21077.005541   -806.303893
PC34   3613.743788 -21175.389288 -17826.709497   -838.904162
PC35  18300.574305  15658.459084 -14074.052284   -621.651515
PC36    654.691313  21185.191518  18183.890357   -890.278571
PC37 -20930.209458  12168.156498 -13866.089925   -905.526917
PC38 -16062.844278  39076.317323     43.096860    104.447351
PC39   -406.188166  30742.779595 -28817.902675     23.407292
PC40 -12151.210835  22012.814983  33823.986146     87.964572
PC43 -10018.879591 -25887.677053  -2946.309289   -403.387824
PC44  15754.096698  -3807.608524 -22718.979933   -184.177372
PC45  15181.716530   6185.234820  22595.256050    248.432237
PC46 -14219.609475  23792.570214   3404.220672    606.434491
PE01 -26736.765407   5926.016211 -11224.194642   -955.199157
PE02  26754.361440  -5989.385896  11154.764034    166.709235
PE03  25988.255099   4800.839804  13342.734041   -350.456196
PE04 -13957.989575  11091.952645 -23628.107310   -621.102780
PE05  22921.852392  18080.493710  -4902.795533   -340.341423
PE07  -6497.150750 -20694.849269  20137.019179   -444.905099
PE08  13591.542852 -11230.928683  23774.910386   6110.816857
PE09   6834.990246  20587.206835 -20148.666575   5908.498764
PE11    295.530095  29574.985498  -1144.192410   6011.773934
PE12 -11513.908103  21291.765157  17032.577720   5571.325570
PE13   -216.149141 -29583.689274    853.780915    404.146482
PE14 -19425.760869 -14553.946562   6055.079850  -1180.007861
PE15  11300.384202 -21468.220591 -16948.094394    849.740565
PE18  25246.481579   6609.309363 -18178.629877  -1289.042031
PE19 -26426.063355  -6645.326003 -11563.382072     95.681871
PE21 -15857.684801  -9118.706684 -23262.964576   -625.119303
PE24  -5085.498020  19393.598283  21779.979602   -513.681240
PE25  15724.927305   9240.549327  23328.114632   -517.719230
PE26 -11859.886086 -19879.047546  18441.584667   2647.102463
PE27   4520.382766 -19262.710951 -22002.061471    119.683316
PE30  22553.067513 -17721.542251  -7293.954630   3529.361449
PE31 -22110.988204  18048.826734   7854.746171   -474.620446
PE33 -16171.863904    744.151151  24784.199348   -462.646462
PE36  11592.490622  20322.372907 -18134.349667    498.392093
PG01 -13935.909223  18301.277174  12745.692903     34.245171
PG02  14702.157208   2529.325920 -21335.553985   -525.706884
PG03 -20708.892488  12935.076559 -10412.838983   -318.193026
PG04 -10800.864906  10729.174384 -21756.859917   -142.192440
PG05  25096.497043   -828.996187  -9097.349309    -22.700802
PG06   7639.450940  17906.271367 -17997.251994   -331.131481
PG07  -5107.554666  25668.708376   2837.740875   -387.206024
PG08 -18117.842329   1049.149095  19497.506983    -50.421447
PG09    926.061838  19154.958109 -18427.444664   -295.996188
PG10  -7899.923284 -13367.707195  21663.098090   -472.263581
PG11 -13522.775962  10380.952670  19966.474522   -145.171464
PG12  22611.692205 -10574.462996  -9082.984242     58.041306
PG13  19895.737509   8716.277554  15232.471677     51.864134
PG15  17977.563721  -3731.448559  18973.043980   -198.974252
PG16 -25762.960803   -748.932575  -7542.147050   -218.391678
PG17  14522.065605  21724.930603   5304.675992    335.661563
PG18   4978.211350 -25804.637772   3648.747867    302.199674
PG19  18039.635031  19387.344807  -2778.125221    -95.716880
PG20   4664.688917 -17433.404906  19331.122107    526.502472
PG21 -15841.858511   -359.028139  22054.648121     54.603900
PG22 -24248.594613  10414.203865  -1953.123861   -746.807972
PG23   3694.946837 -16152.690485  20721.096468     80.361808
PG24  14568.976243 -15790.284340  15153.236942    -19.428059
PG25  12395.239820 -15835.834306 -17452.825265      0.801627
PG26 -18586.654067  -7576.869976 -17543.307875    290.378124
PG27 -21522.459761 -10056.163546  12077.571838   -411.662165
PG28   8157.300531  13631.844320  21845.252921    671.083729
PG29   2773.234534 -17166.880540 -20101.061561   -209.364866
PG30   1881.702310  23631.888290  11802.258671   -314.538813
PG31  -9278.331687 -15863.337766 -19058.424103    -73.058033
PG32 -16218.513607 -20643.687713   4632.028110    354.372107
PJ01 -30311.369729  15550.115186 -20272.918542   -342.240484
PJ02 -29801.120268  29802.864060   7110.525690     -4.691622
PJ03 -25648.795171  23413.650257  28977.729727     -1.699543
PR01  23342.906954   1123.305371  10233.138848     68.597841
PR02   6623.198574  -9306.286159  22835.782415    448.640467
PR03 -11974.250755 -12698.685400  18659.124959     23.257024
PR04 -23613.227636  -8785.403917   4030.335204     56.935540
PR05 -22012.295093   -102.458556 -12905.219990     58.778129
PR07  12489.311267  12653.069370 -18241.631193    -40.597922
PR08  23612.801293   8769.382681  -3915.463293    -54.979779
PR09 -14229.069214  19524.065681   8097.620549      0.712688
PR11  14200.724965    551.660735  21216.774533    -40.086692
PR12  19815.872880 -12803.751868   9709.646814    169.415869
PR13  14409.660689 -19536.220893  -7849.039445    -44.810525
PR14    493.131960 -14524.945489 -20948.092251     56.267456
PR15 -13493.416935  -1278.415370 -21581.189222    107.001923
PR16 -19647.221147  13723.734068  -8926.384264     -6.975553
PR17  -6650.651672 -24559.276156   1412.805104    363.801678
PR18 -11466.195225 -15380.809234  16848.793998     51.734184
PR19 -10334.543182   1194.872734  23288.840239   -114.144745
PR20  -2884.604000  19904.100853  15675.946996   -423.440222
PR21   7029.646507  24416.884702  -2470.147713   -156.993638
PR22  11478.102653  14279.417594 -17721.563258    -76.207289
PR23   8106.285815  -9216.886193 -22367.427679    336.467044
PR24   2611.448661 -20479.781403 -14948.780677     15.767156
PR26  -5118.996439  15892.010075  19309.180418   -362.091676
EOF
